GSAT-7                  
1 39234U 13044B   26157.93248353 -.00000063  00000+0  00000+0 0  9999
2 39234   0.0583 101.1651 0002964 190.4501  13.4234  1.00270912 45159
AMOS-4                  
1 39237U 13045A   26157.93066353  .00000021  00000+0  00000+0 0  9994
2 39237   0.0244  88.9528 0002517 326.1707 240.2596  1.00270539 46855
AEHF-3 (USA 246)        
1 39256U 13050A   26157.89309081  .00000043  00000+0  00000+0 0  9998
2 39256   5.2693  67.2758 0087814 188.0784 197.1897  1.00270026 45550
ASTRA 2E                
1 39285U 13056A   26157.92348318  .00000164  00000+0  00000+0 0  9990
2 39285   0.0693 319.6694 0002643 124.9680 171.6596  1.00273094 46315
FM-6                    
1 39360U 13058A   26157.68087418 -.00000004  00000+0  00000+0 0  9994
2 39360   0.0137  48.0496 0003585 117.6602 218.1964  1.00279606 45965
RADUGA-1M 3             
1 39375U 13062A   26157.85345681  .00000166  00000+0  00000+0 0  9991
2 39375   5.9309  72.4835 0001646 270.4520 254.5602  1.00271632 46007
SES-8                   
1 39460U 13071A   26157.93664355 -.00000256  00000+0  00000+0 0  9998
2 39460   0.0131 304.7438 0002924 137.2244 245.5828  1.00271932 44320
INMARSAT 5-F1           
1 39476U 13073A   26157.92983729  .00000042  00000+0  00000+0 0  9997
2 39476   0.0185 358.2209 0000688 344.9166 309.5800  1.00269654 45477
TKSAT-1 (TUPAC KATARI)  
1 39481U 13075A   26157.90057271 -.00000181  00000+0  00000+0 0  9992
2 39481   0.0306 185.6252 0002691 241.3584  65.3496  1.00272852 45504
EXPRESS-AM5             
1 39487U 13077A   26156.94742374 -.00000267  00000+0  00000+0 0  9993
2 39487   0.0150 282.3642 0000663  75.1222  17.9923  1.00269992 46245
GSAT-14                 
1 39498U 14001A   26157.93248353  .00000000  00000+0  00000+0 0  9995
2 39498   0.0105 338.2185 0000868 315.3391  11.4779  1.00269286 45279
THAICOM 6               
1 39500U 14002A   26157.93335021 -.00000107  00000+0  00000+0 0  9998
2 39500   0.0793 106.7907 0004599 355.5275 207.5399  1.00270027 45358
TDRS 12                 
1 39504U 14004A   26157.90975942 -.00000257  00000+0  00000+0 0  9999
2 39504   3.9667  18.9112 0002669 197.7502 325.2879  1.00270976 44174
ABS-2                   
1 39508U 14006A   26157.93265687 -.00000072  00000+0  00000+0 0  9991
2 39508   0.0242  64.2514 0004228 359.2194 242.5629  1.00271738 45172
ATHENA-FIDUS            
1 39509U 14006B   26157.85397681  .00000168  00000+0  00000+0 0  9998
2 39509   0.0385  98.7914 0001524 349.4163 152.2992  1.00270146 44980
TURKSAT 4A              
1 39522U 14007A   26157.85484347  .00000160  00000+0  00000+0 0  9992
2 39522   0.0578 291.5483 0001426  40.0326 273.4380  1.00269701 44868
EXPRESS-AT1             
1 39612U 14010A   26157.92997019  .00000048  00000+0  00000+0 0  9994
2 39612   0.2306  85.7957 0003872  33.2453 172.2828  1.00301767 44716
EXPRESS-AT2             
1 39613U 14010B   26157.92893019  .00000092  00000+0  00000+0 0  9999
2 39613   0.0178 305.5894 0000298  76.3190 263.8494  1.00273469 44397
AMAZONAS 4A             
1 39616U 14011A   26157.90317272 -.00000239  00000+0  00000+0 0  9997
2 39616   0.0669 206.7927 0003864 256.5738  43.0782  1.00274082 44611
ASTRA 5B                
1 39617U 14011B   26157.99234604  .00000151  00000+0  00000+0 0  9996
2 39617   0.0586 315.8614 0002187 107.7215 212.5755  1.00269587 44560
IRNSS-1B                
1 39635U 14017A   26139.86086405  .00000103  00000+0  00000+0 0  9999
2 39635  28.9733 240.8911 0024226 185.2284 176.5740  1.00280229 44519
LUCH-5V                 
1 39727U 14023A   26157.85233410 -.00000254  00000+0  00000+0 0  9995
2 39727   5.1075  69.8532 0002824  28.9558 198.0024  1.00268278 44257
KAZSAT-3                
1 39728U 14023B   26157.92945019  .00000074  00000+0  00000+0 0  9998
2 39728   0.0258  50.1346 0000189 336.9512 261.3516  1.00271659 42351
EUTELSAT 3B             
1 39773U 14030A   26157.88809230  .00000034  00000+0  00000+0 0  9991
2 39773   0.0607 352.2842 0004080  85.1000 140.7302  1.00272428 43961
ASIASAT 8 (AMOS-7)      
1 40107U 14046A   26157.94033475 -.00000319  00000+0  00000+0 0  9995
2 40107   0.0149 292.8735 0001592 140.1710 266.1573  1.00272309102046
ASIASAT 6               
1 40141U 14052A   26156.72953475 -.00000349  00000+0  00000+0 0  9999
2 40141   0.0184 310.8041 0001020 141.3753 184.5165  1.00269615 42960
OPTUS 10                
1 40146U 14054A   26157.80610478 -.00000133  00000+0  00000+0 0  9990
2 40146   0.1190 340.9507 0002136  92.5185 267.9502  1.00272579 42929
MEASAT-3B               
1 40147U 14054B   26157.93595022 -.00000228  00000+0  00000+0 0  9997
2 40147   0.0430  41.5357 0003192  23.3202 258.9209  1.00273135 42808
HIMAWARI-8              
1 40267U 14060A   26157.94565693 -.00000262  00000+0  00000+0 0  9997
2 40267   0.0189  49.1479 0000891  48.0400 279.2817  1.00271382 42654
IRNSS-1C                
1 40269U 14061A   26157.85165249 -.00000148  00000+0  00000+0 0  9996
2 40269   6.4923  89.1238 0022605   1.2769 194.4828  1.00270962 42580
INTELSAT 30 (IS-30)     
1 40271U 14062A   26157.89901271 -.00000137  00000+0  00000+0 0  9995
2 40271   0.0239  44.6709 0000990 353.6139  85.5907  1.00268996  6694
ARSAT 1                 
1 40272U 14062B   26157.90360605 -.00000246  00000+0  00000+0 0  9999
2 40272   0.0415  63.9677 0001894  12.2735  72.5791  1.00270747 42529
