OBJECT_NAME,OBJECT_ID,EPOCH,MEAN_MOTION,ECCENTRICITY,INCLINATION,RA_OF_ASC_NODE,ARG_OF_PERICENTER,MEAN_ANOMALY,EPHEMERIS_TYPE,CLASSIFICATION_TYPE,NORAD_CAT_ID,ELEMENT_SET_NO,REV_AT_EPOCH,BSTAR,MEAN_MOTION_DOT,MEAN_MOTION_DDOT
GSAT-7,2013-044B,2026-06-06T22:22:46.576992,1.00270912,.00029646,0.0583,101.1651,190.4501,13.4234,0,U,39234,999,4515,0,-.63E-6,0
AMOS-4,2013-045A,2026-06-06T22:20:09.328992,1.00270539,.00025173,0.0244,88.9528,326.1707,240.2596,0,U,39237,999,4685,0,.21E-6,0
AEHF-3 (USA 246),2013-050A,2026-06-06T21:26:03.045984,1.00270026,.0087814,5.2693,67.2758,188.0784,197.1897,0,U,39256,999,4555,0,.43E-6,0
ASTRA 2E,2013-056A,2026-06-06T22:09:48.946752,1.00273094,.00026436,0.0693,319.6694,124.9680,171.6596,0,U,39285,999,4631,0,.164E-5,0
FM-6,2013-058A,2026-06-06T16:20:27.529152,1.00279606,.00035858,0.0137,48.0496,117.6602,218.1964,0,U,39360,999,4596,0,-.4E-7,0
RADUGA-1M 3,2013-062A,2026-06-06T20:28:58.668384,1.00271632,.00016464,5.9309,72.4835,270.4520,254.5602,0,U,39375,999,4600,0,.166E-5,0
SES-8,2013-071A,2026-06-06T22:28:46.002720,1.00271932,.0002924,0.0131,304.7438,137.2244,245.5828,0,U,39460,999,4432,0,-.256E-5,0
INMARSAT 5-F1,2013-073A,2026-06-06T22:18:57.941856,1.00269654,.00006889,0.0185,358.2209,344.9166,309.5800,0,U,39476,999,4547,0,.42E-6,0
TKSAT-1 (TUPAC KATARI),2013-075A,2026-06-06T21:36:49.482144,1.00272852,.00026913,0.0306,185.6252,241.3584,65.3496,0,U,39481,999,4550,0,-.181E-5,0
EXPRESS-AM5,2013-077A,2026-06-05T22:44:17.411136,1.00269992,.00006637,0.0150,282.3642,75.1222,17.9923,0,U,39487,999,4624,0,-.267E-5,0
GSAT-14,2014-001A,2026-06-06T22:22:46.576992,1.00269286,.00008684,0.0105,338.2185,315.3391,11.4779,0,U,39498,999,4527,0,0,0
THAICOM 6,2014-002A,2026-06-06T22:24:01.458144,1.00270027,.00045994,0.0793,106.7907,355.5275,207.5399,0,U,39500,999,4535,0,-.107E-5,0
TDRS 12,2014-004A,2026-06-06T21:50:03.213888,1.00270976,.00026695,3.9667,18.9112,197.7502,325.2879,0,U,39504,999,4417,0,-.257E-5,0
ABS-2,2014-006A,2026-06-06T22:23:01.553568,1.00271738,.00042286,0.0242,64.2514,359.2194,242.5629,0,U,39508,999,4517,0,-.72E-6,0
ATHENA-FIDUS,2014-006B,2026-06-06T20:29:43.596384,1.00270146,.00015247,0.0385,98.7914,349.4163,152.2992,0,U,39509,999,4498,0,.168E-5,0
TURKSAT 4A,2014-007A,2026-06-06T20:30:58.475808,1.00269701,.00014265,0.0578,291.5483,40.0326,273.4380,0,U,39522,999,4486,0,.16E-5,0
EXPRESS-AT1,2014-010A,2026-06-06T22:19:09.424416,1.00301767,.00038723,0.2306,85.7957,33.2453,172.2828,0,U,39612,999,4471,0,.48E-6,0
EXPRESS-AT2,2014-010B,2026-06-06T22:17:39.568416,1.00273469,.00002986,0.0178,305.5894,76.3190,263.8494,0,U,39613,999,4439,0,.92E-6,0
AMAZONAS 4A,2014-011A,2026-06-06T21:40:34.123008,1.00274082,.00038645,0.0669,206.7927,256.5738,43.0782,0,U,39616,999,4461,0,-.239E-5,0
ASTRA 5B,2014-011B,2026-06-06T23:48:58.697856,1.00269587,.00021875,0.0586,315.8614,107.7215,212.5755,0,U,39617,999,4456,0,.151E-5,0
IRNSS-1B,2014-017A,2026-05-19T20:39:38.653920,1.00280229,.00242269,28.9733,240.8911,185.2284,176.5740,0,U,39635,999,4451,0,.103E-5,0
LUCH-5V,2014-023A,2026-06-06T20:27:21.666240,1.00268278,.00028246,5.1075,69.8532,28.9558,198.0024,0,U,39727,999,4425,0,-.254E-5,0
KAZSAT-3,2014-023B,2026-06-06T22:18:24.496416,1.00271659,.00001894,0.0258,50.1346,336.9512,261.3516,0,U,39728,999,4235,0,.74E-6,0
EUTELSAT 3B,2014-030A,2026-06-06T21:18:51.174720,1.00272428,.00040804,0.0607,352.2842,85.1000,140.7302,0,U,39773,999,4396,0,.34E-6,0
ASIASAT 8 (AMOS-7),2014-046A,2026-06-06T22:34:04.922400,1.00272309,.00015925,0.0149,292.8735,140.1710,266.1573,0,U,40107,999,10204,0,-.319E-5,0
ASIASAT 6,2014-052A,2026-06-05T17:30:31.802400,1.00269615,.000102,0.0184,310.8041,141.3753,184.5165,0,U,40141,999,4296,0,-.349E-5,0
OPTUS 10,2014-054A,2026-06-06T19:20:47.452992,1.00272579,.00021362,0.1190,340.9507,92.5185,267.9502,0,U,40146,999,4292,0,-.133E-5,0
MEASAT-3B,2014-054B,2026-06-06T22:27:46.099008,1.00273135,.00031924,0.0430,41.5357,23.3202,258.9209,0,U,40147,999,4280,0,-.228E-5,0
HIMAWARI-8,2014-060A,2026-06-06T22:41:44.758752,1.00271382,.00008917,0.0189,49.1479,48.0400,279.2817,0,U,40267,999,4265,0,-.262E-5,0
IRNSS-1C,2014-061A,2026-06-06T20:26:22.775136,1.00270962,.00226053,6.4923,89.1238,1.2769,194.4828,0,U,40269,999,4258,0,-.148E-5,0
INTELSAT 30 (IS-30),2014-062A,2026-06-06T21:34:34.698144,1.00268996,.00009905,0.0239,44.6709,353.6139,85.5907,0,U,40271,999,669,0,-.137E-5,0
ARSAT 1,2014-062B,2026-06-06T21:41:11.562720,1.00270747,.00018941,0.0415,63.9677,12.2735,72.5791,0,U,40272,999,4252,0,-.246E-5,0
